[{"OBJECT_NAME":"SILVERSAT","OBJECT_ID":"1998-067XV","EPOCH":"2026-04-21T10:00:08.915904","MEAN_MOTION":16.15331909,"ECCENTRICITY":0.00131383,"INCLINATION":51.6081,"RA_OF_ASC_NODE":201.2837,"ARG_OF_PERICENTER":340.8561,"MEAN_ANOMALY":19.196,"EPHEMERIS_TYPE":0,"CLASSIFICATION_TYPE":"U","NORAD_CAT_ID":66909,"ELEMENT_SET_NO":999,"REV_AT_EPOCH":2197,"BSTAR":0.0017496522,"MEAN_MOTION_DOT":0.02238858,"MEAN_MOTION_DDOT":0.0060623342},{"OBJECT_NAME":"ISS OBJECT XW","OBJECT_ID":"1998-067XW","EPOCH":"2026-04-20T13:06:38.350080","MEAN_MOTION":15.85521877,"ECCENTRICITY":0.00108272,"INCLINATION":51.6185,"RA_OF_ASC_NODE":209.8088,"ARG_OF_PERICENTER":332.6022,"MEAN_ANOMALY":27.4409,"EPHEMERIS_TYPE":0,"CLASSIFICATION_TYPE":"U","NORAD_CAT_ID":66910,"ELEMENT_SET_NO":999,"REV_AT_EPOCH":2178,"BSTAR":0.0010336203,"MEAN_MOTION_DOT":0.00262547,"MEAN_MOTION_DDOT":0},{"OBJECT_NAME":"ISS OBJECT XY","OBJECT_ID":"1998-067XY","EPOCH":"2026-04-20T13:48:35.349696","MEAN_MOTION":15.72889119,"ECCENTRICITY":0.00073385,"INCLINATION":51.6234,"RA_OF_ASC_NODE":213.8212,"ARG_OF_PERICENTER":328.9976,"MEAN_ANOMALY":31.0588,"EPHEMERIS_TYPE":0,"CLASSIFICATION_TYPE":"U","NORAD_CAT_ID":66912,"ELEMENT_SET_NO":999,"REV_AT_EPOCH":2172,"BSTAR":0.00081723952,"MEAN_MOTION_DOT":0.00114465,"MEAN_MOTION_DDOT":0},{"OBJECT_NAME":"KNACKSAT-2","OBJECT_ID":"1998-067XZ","EPOCH":"2026-04-21T07:25:13.634112","MEAN_MOTION":15.55273526,"ECCENTRICITY":0.00119777,"INCLINATION":51.6303,"RA_OF_ASC_NODE":219.5073,"ARG_OF_PERICENTER":346.875,"MEAN_ANOMALY":13.1928,"EPHEMERIS_TYPE":0,"CLASSIFICATION_TYPE":"U","NORAD_CAT_ID":67683,"ELEMENT_SET_NO":999,"REV_AT_EPOCH":1141,"BSTAR":0.00059840435,"MEAN_MOTION_DOT":0.00041155,"MEAN_MOTION_DDOT":0},{"OBJECT_NAME":"CORAL","OBJECT_ID":"1998-067YA","EPOCH":"2026-04-21T14:34:53.595264","MEAN_MOTION":15.61865265,"ECCENTRICITY":0.0015784,"INCLINATION":51.6276,"RA_OF_ASC_NODE":216.2437,"ARG_OF_PERICENTER":340.8265,"MEAN_ANOMALY":19.2133,"EPHEMERIS_TYPE":0,"CLASSIFICATION_TYPE":"U","NORAD_CAT_ID":67684,"ELEMENT_SET_NO":999,"REV_AT_EPOCH":1148,"BSTAR":0.00094597,"MEAN_MOTION_DOT":0.0008462,"MEAN_MOTION_DDOT":0},{"OBJECT_NAME":"GXIBA-1","OBJECT_ID":"1998-067YB","EPOCH":"2026-04-21T00:46:14.925216","MEAN_MOTION":15.56031272,"ECCENTRICITY":0.00138757,"INCLINATION":51.6293,"RA_OF_ASC_NODE":220.6569,"ARG_OF_PERICENTER":342.9883,"MEAN_ANOMALY":17.0642,"EPHEMERIS_TYPE":0,"CLASSIFICATION_TYPE":"U","NORAD_CAT_ID":67685,"ELEMENT_SET_NO":999,"REV_AT_EPOCH":1137,"BSTAR":0.00061633799,"MEAN_MOTION_DOT":0.00043678,"MEAN_MOTION_DDOT":0},{"OBJECT_NAME":"UITMSAT-2","OBJECT_ID":"1998-067YC","EPOCH":"2026-04-21T13:49:59.556864","MEAN_MOTION":15.57578897,"ECCENTRICITY":0.0010869,"INCLINATION":51.6287,"RA_OF_ASC_NODE":217.5437,"ARG_OF_PERICENTER":325.3971,"MEAN_ANOMALY":34.6312,"EPHEMERIS_TYPE":0,"CLASSIFICATION_TYPE":"U","NORAD_CAT_ID":67686,"ELEMENT_SET_NO":999,"REV_AT_EPOCH":1146,"BSTAR":0.00070302,"MEAN_MOTION_DOT":0.0005285,"MEAN_MOTION_DDOT":0},{"OBJECT_NAME":"HMU-SAT2","OBJECT_ID":"1998-067YD","EPOCH":"2026-04-21T13:19:37.129440","MEAN_MOTION":15.55743238,"ECCENTRICITY":0.00101616,"INCLINATION":51.6319,"RA_OF_ASC_NODE":218.1564,"ARG_OF_PERICENTER":326.4092,"MEAN_ANOMALY":33.6254,"EPHEMERIS_TYPE":0,"CLASSIFICATION_TYPE":"U","NORAD_CAT_ID":67687,"ELEMENT_SET_NO":999,"REV_AT_EPOCH":1137,"BSTAR":0.00056527791,"MEAN_MOTION_DOT":0.00039493,"MEAN_MOTION_DDOT":0},{"OBJECT_NAME":"LEOPARD","OBJECT_ID":"1998-067YE","EPOCH":"2026-04-21T00:20:14.298432","MEAN_MOTION":15.56843109,"ECCENTRICITY":0.00104936,"INCLINATION":51.6305,"RA_OF_ASC_NODE":220.5395,"ARG_OF_PERICENTER":323.1792,"MEAN_ANOMALY":36.8478,"EPHEMERIS_TYPE":0,"CLASSIFICATION_TYPE":"U","NORAD_CAT_ID":67688,"ELEMENT_SET_NO":999,"REV_AT_EPOCH":1129,"BSTAR":0.00065932554,"MEAN_MOTION_DOT":0.00048143,"MEAN_MOTION_DDOT":0},{"OBJECT_NAME":"CREW DRAGON 12","OBJECT_ID":"2026-031A","EPOCH":"2026-04-21T17:57:25.179840","MEAN_MOTION":15.48877266,"ECCENTRICITY":0.0006711,"INCLINATION":51.6323,"RA_OF_ASC_NODE":219.4368,"ARG_OF_PERICENTER":334.6967,"MEAN_ANOMALY":25.3692,"EPHEMERIS_TYPE":0,"CLASSIFICATION_TYPE":"U","NORAD_CAT_ID":67796,"ELEMENT_SET_NO":999,"REV_AT_EPOCH":56310,"BSTAR":0.00018169,"MEAN_MOTION_DOT":9.534e-5,"MEAN_MOTION_DDOT":0},{"OBJECT_NAME":"PROGRESS-MS 33","OBJECT_ID":"2026-058A","EPOCH":"2026-04-21T17:57:25.179840","MEAN_MOTION":15.48877266,"ECCENTRICITY":0.0006711,"INCLINATION":51.6323,"RA_OF_ASC_NODE":219.4368,"ARG_OF_PERICENTER":334.6967,"MEAN_ANOMALY":25.3692,"EPHEMERIS_TYPE":0,"CLASSIFICATION_TYPE":"U","NORAD_CAT_ID":68319,"ELEMENT_SET_NO":999,"REV_AT_EPOCH":461,"BSTAR":0.00018169,"MEAN_MOTION_DOT":9.534e-5,"MEAN_MOTION_DDOT":0},{"OBJECT_NAME":"CYGNUS NG-24","OBJECT_ID":"2026-079A","EPOCH":"2026-04-21T11:45:46.937376","MEAN_MOTION":15.48871312,"ECCENTRICITY":0.00067285,"INCLINATION":51.6324,"RA_OF_ASC_NODE":220.7136,"ARG_OF_PERICENTER":333.7588,"MEAN_ANOMALY":26.3059,"EPHEMERIS_TYPE":0,"CLASSIFICATION_TYPE":"U","NORAD_CAT_ID":68689,"ELEMENT_SET_NO":999,"REV_AT_EPOCH":153,"BSTAR":0.00017596804,"MEAN_MOTION_DOT":9.217e-5,"MEAN_MOTION_DDOT":0}]
