SILVERSAT               
1 66909U 98067XV  26111.41676986  .02238858  60623-2  17497-2 0  9993
2 66909  51.6081 201.2837 0013138 340.8561  19.1960 16.15331909 21972
ISS OBJECT XW           
1 66910U 98067XW  26110.54627720  .00262547  00000+0  10336-2 0  9995
2 66910  51.6185 209.8088 0010827 332.6022  27.4409 15.85521877 21784
ISS OBJECT XY           
1 66912U 98067XY  26110.57540914  .00114465  00000+0  81724-3 0  9994
2 66912  51.6234 213.8212 0007338 328.9976  31.0588 15.72889119 21729
KNACKSAT-2              
1 67683U 98067XZ  26111.30918558  .00041155  00000+0  59840-3 0  9994
2 67683  51.6303 219.5073 0011977 346.8750  13.1928 15.55273526 11417
CORAL                   
1 67684U 98067YA  26111.60756476  .00084620  00000+0  94597-3 0  9999
2 67684  51.6276 216.2437 0015784 340.8265  19.2133 15.61865265 11486
GXIBA-1                 
1 67685U 98067YB  26111.03211719  .00043678  00000+0  61634-3 0  9997
2 67685  51.6293 220.6569 0013875 342.9883  17.0642 15.56031272 11375
UITMSAT-2               
1 67686U 98067YC  26111.57638376  .00052850  00000+0  70302-3 0  9993
2 67686  51.6287 217.5437 0010869 325.3971  34.6312 15.57578897 11460
HMU-SAT2                
1 67687U 98067YD  26111.55529085  .00039493  00000+0  56528-3 0  9990
2 67687  51.6319 218.1564 0010161 326.4092  33.6254 15.55743238 11371
LEOPARD                 
1 67688U 98067YE  26111.01405438  .00048143  00000+0  65933-3 0  9999
2 67688  51.6305 220.5395 0010493 323.1792  36.8478 15.56843109 11298
CREW DRAGON 12          
1 67796U 26031A   26111.74820810  .00009534  00000+0  18169-3 0  9996
2 67796  51.6323 219.4368 0006711 334.6967  25.3692 15.48877266563109
PROGRESS-MS 33          
1 68319U 26058A   26111.74820810  .00009534  00000+0  18169-3 0  9997
2 68319  51.6323 219.4368 0006711 334.6967  25.3692 15.48877266  4617
CYGNUS NG-24            
1 68689U 26079A   26111.49012659  .00009217  00000+0  17597-3 0  9998
2 68689  51.6324 220.7136 0006728 333.7588  26.3059 15.48871312  1535
